{"type": "FeatureCollection", "features": [ {"type": "Feature", "properties": {"norad_id": 66911, "name": "1998-067XX", "group": "stations", "lat": 1.6428725691276127, "lon": 86.40820971286318, "alt_km": 406.6911713415748, "timestamp": "2025-12-24T05:51:18.359621+00:00", "meta": {"OBJECT_NAME": "1998-067XX", "OBJECT_ID": "1998-067XX", "EPOCH": "2025-12-23T12:51:49.426272", "MEAN_MOTION": 15.53470318, "ECCENTRICITY": 0.00036819, "INCLINATION": 51.6308, "RA_OF_ASC_NODE": 88.6344, "ARG_OF_PERICENTER": 272.7322, "MEAN_ANOMALY": 87.3247, "EPHEMERIS_TYPE": 0, "CLASSIFICATION_TYPE": "U", "NORAD_CAT_ID": 66911, "ELEMENT_SET_NO": 999, "REV_AT_EPOCH": 328, "BSTAR": 0.0011146437, "MEAN_MOTION_DOT": 0.00072234, "MEAN_MOTION_DDOT": 0}, "tle": {"line1": "1 66911U 98067XX  25357.53598873  .00072234  00000+0  11146-2 0  9995", "line2": "2 66911  51.6308  88.6344 0003681 272.7322  87.3247 15.53470318  3285"}}, "geometry": {"type": "Point", "coordinates": [86.40820971286318, 1.6428725691276127]}}, {"type": "Feature", "properties": {"norad_id": 66912, "name": "1998-067XY", "group": "stations", "lat": -45.62375539335081, "lon": 31.18116783037046, "alt_km": 412.04915642133983, "timestamp": "2025-12-24T05:51:18.359633+00:00", "meta": {"OBJECT_NAME": "1998-067XY", "OBJECT_ID": "1998-067XY", "EPOCH": "2025-12-23T06:57:34.859520", "MEAN_MOTION": 15.52133019, "ECCENTRICITY": 0.00038791, "INCLINATION": 51.6317, "RA_OF_ASC_NODE": 89.9922, "ARG_OF_PERICENTER": 281.5198, "MEAN_ANOMALY": 78.5356, "EPHEMERIS_TYPE": 0, "CLASSIFICATION_TYPE": "U", "NORAD_CAT_ID": 66912, "ELEMENT_SET_NO": 999, "REV_AT_EPOCH": 324, "BSTAR": 0.00084098106, "MEAN_MOTION_DOT": 0.00051669, "MEAN_MOTION_DDOT": 0}, "tle": {"line1": "1 66912U 98067XY  25357.28998680  .00051669  00000+0  84098-3 0  9994", "line2": "2 66912  51.6317  89.9922 0003879 281.5198  78.5356 15.52133019  3242"}}, "geometry": {"type": "Point", "coordinates": [31.18116783037046, -45.62375539335081]}}]}